SL-16 R/B               
1 25407U 98045B   26075.98964520  .00000213  00000+0  13173-3 0  9990
2 25407  71.0120 166.2234 0007215 356.7335   3.3740 14.16194057428135
ISS (ZARYA)             
1 25544U 98067A   26076.12878023  .00010265  00000+0  19871-3 0  9994
2 25544  51.6339  35.5823 0006017 202.6546 157.4177 15.48331788557483
CZ-4B R/B               
1 25732U 99025C   26076.14468770  .00000050  00000+0  45057-4 0  9991
2 25732  98.6610 120.2491 0036373 324.8831 101.9396 14.18266864389220
OKEAN-O                 
1 25860U 99039A   26076.08721249  .00000626  00000+0  88874-4 0  9997
2 25860  97.9425 135.9029 0001042  74.0181 286.1146 14.80347700435482
SL-16 R/B               
1 25861U 99039B   26076.12764497  .00000522  00000+0  73012-4 0  9998
2 25861  97.9949 135.2128 0013759 229.8451 130.1558 14.81741981437965
DELTA 2 R/B             
1 25876U 99041E   26075.80413598  .00000916  00000+0  18619-3 0  9992
2 25876  51.7614 272.8619 0502548   9.4183 351.5757 14.11858703364035
HELIOS 1B               
1 25977U 99064A   26075.97772780  .00001543  00000+0  17570-3 0  9990
2 25977  98.1689 338.4350 0002292  64.5628 295.5824 14.87727950686347
TERRA                   
1 25994U 99068A   26076.18312427  .00000412  00000+0  92957-4 0  9992
2 25994  97.9577 129.3310 0003140 135.1955 301.0539 14.61022843396179
SL-16 R/B               
1 26070U 00006B   26076.07760667 -.00000184  00000+0 -69014-4 0  9999
2 26070  71.0002  82.3015 0016361 178.8585 181.2578 14.15824169349600
TITAN 4B R/B            
1 26474U 00047B   26076.11724321  .00003528  00000+0  22333-3 0  9999
2 26474  67.9910  19.6226 0038829  26.5531 333.7595 15.09638120394034
ENVISAT                 
1 27386U 02009A   26075.83303155  .00000101  00000+0  46606-4 0  9992
2 27386  98.3739  29.2607 0001304  82.6085 285.6010 14.39039566260208
IDEFIX & ARIANE 42P R/B 
1 27422U 02021B   26076.11712512  .00000243  00000+0  10877-3 0  9997
2 27422  98.5877  14.6349 0012015 160.2911 199.8738 14.31031330245082
