CCSDS_OMM_VERS = 2.0
CREATION_DATE  = 
ORIGINATOR     = 

OBJECT_NAME    = SL-16 R/B
OBJECT_ID      = 1998-045B
CENTER_NAME    = EARTH
REF_FRAME      = TEME
TIME_SYSTEM    = UTC
MEAN_ELEMENT_THEORY = SGP/SGP4

EPOCH          = 2026-03-16T23:45:05.345280
MEAN_MOTION    = 14.16194057
ECCENTRICITY   = .0007215
INCLINATION    = 71.0120
RA_OF_ASC_NODE = 166.2234
ARG_OF_PERICENTER = 356.7335
MEAN_ANOMALY   = 3.3740

EPHEMERIS_TYPE = 0
CLASSIFICATION_TYPE = U
NORAD_CAT_ID   = 25407
ELEMENT_SET_NO = 999
REV_AT_EPOCH   = 42813
BSTAR          = .13173E-3
MEAN_MOTION_DOT = .213E-5
MEAN_MOTION_DDOT = 0

CCSDS_OMM_VERS = 2.0
CREATION_DATE  = 
ORIGINATOR     = 

OBJECT_NAME    = ISS (ZARYA)
OBJECT_ID      = 1998-067A
CENTER_NAME    = EARTH
REF_FRAME      = TEME
TIME_SYSTEM    = UTC
MEAN_ELEMENT_THEORY = SGP/SGP4

EPOCH          = 2026-03-17T03:05:26.611872
MEAN_MOTION    = 15.48331788
ECCENTRICITY   = .0006017
INCLINATION    = 51.6339
RA_OF_ASC_NODE = 35.5823
ARG_OF_PERICENTER = 202.6546
MEAN_ANOMALY   = 157.4177

EPHEMERIS_TYPE = 0
CLASSIFICATION_TYPE = U
NORAD_CAT_ID   = 25544
ELEMENT_SET_NO = 999
REV_AT_EPOCH   = 55748
BSTAR          = .19871E-3
MEAN_MOTION_DOT = .10265E-3
MEAN_MOTION_DDOT = 0

CCSDS_OMM_VERS = 2.0
CREATION_DATE  = 
ORIGINATOR     = 

OBJECT_NAME    = CZ-4B R/B
OBJECT_ID      = 1999-025C
CENTER_NAME    = EARTH
REF_FRAME      = TEME
TIME_SYSTEM    = UTC
MEAN_ELEMENT_THEORY = SGP/SGP4

EPOCH          = 2026-03-17T03:28:21.017280
MEAN_MOTION    = 14.18266864
ECCENTRICITY   = .0036373
INCLINATION    = 98.6610
RA_OF_ASC_NODE = 120.2491
ARG_OF_PERICENTER = 324.8831
MEAN_ANOMALY   = 101.9396

EPHEMERIS_TYPE = 0
CLASSIFICATION_TYPE = U
NORAD_CAT_ID   = 25732
ELEMENT_SET_NO = 999
REV_AT_EPOCH   = 38922
BSTAR          = .45057E-4
MEAN_MOTION_DOT = .5E-6
MEAN_MOTION_DDOT = 0

CCSDS_OMM_VERS = 2.0
CREATION_DATE  = 
ORIGINATOR     = 

OBJECT_NAME    = OKEAN-O
OBJECT_ID      = 1999-039A
CENTER_NAME    = EARTH
REF_FRAME      = TEME
TIME_SYSTEM    = UTC
MEAN_ELEMENT_THEORY = SGP/SGP4

EPOCH          = 2026-03-17T02:05:35.159136
MEAN_MOTION    = 14.80347700
ECCENTRICITY   = .0001042
INCLINATION    = 97.9425
RA_OF_ASC_NODE = 135.9029
ARG_OF_PERICENTER = 74.0181
MEAN_ANOMALY   = 286.1146

EPHEMERIS_TYPE = 0
CLASSIFICATION_TYPE = U
NORAD_CAT_ID   = 25860
ELEMENT_SET_NO = 999
REV_AT_EPOCH   = 43548
BSTAR          = .88874E-4
MEAN_MOTION_DOT = .626E-5
MEAN_MOTION_DDOT = 0

CCSDS_OMM_VERS = 2.0
CREATION_DATE  = 
ORIGINATOR     = 

OBJECT_NAME    = SL-16 R/B
OBJECT_ID      = 1999-039B
CENTER_NAME    = EARTH
REF_FRAME      = TEME
TIME_SYSTEM    = UTC
MEAN_ELEMENT_THEORY = SGP/SGP4

EPOCH          = 2026-03-17T03:03:48.525408
MEAN_MOTION    = 14.81741981
ECCENTRICITY   = .0013759
INCLINATION    = 97.9949
RA_OF_ASC_NODE = 135.2128
ARG_OF_PERICENTER = 229.8451
MEAN_ANOMALY   = 130.1558

EPHEMERIS_TYPE = 0
CLASSIFICATION_TYPE = U
NORAD_CAT_ID   = 25861
ELEMENT_SET_NO = 999
REV_AT_EPOCH   = 43796
BSTAR          = .73012E-4
MEAN_MOTION_DOT = .522E-5
MEAN_MOTION_DDOT = 0

CCSDS_OMM_VERS = 2.0
CREATION_DATE  = 
ORIGINATOR     = 

OBJECT_NAME    = DELTA 2 R/B
OBJECT_ID      = 1999-041E
CENTER_NAME    = EARTH
REF_FRAME      = TEME
TIME_SYSTEM    = UTC
MEAN_ELEMENT_THEORY = SGP/SGP4

EPOCH          = 2026-03-16T19:17:57.348672
MEAN_MOTION    = 14.11858703
ECCENTRICITY   = .0502548
INCLINATION    = 51.7614
RA_OF_ASC_NODE = 272.8619
ARG_OF_PERICENTER = 9.4183
MEAN_ANOMALY   = 351.5757

EPHEMERIS_TYPE = 0
CLASSIFICATION_TYPE = U
NORAD_CAT_ID   = 25876
ELEMENT_SET_NO = 999
REV_AT_EPOCH   = 36403
BSTAR          = .18619E-3
MEAN_MOTION_DOT = .916E-5
MEAN_MOTION_DDOT = 0

CCSDS_OMM_VERS = 2.0
CREATION_DATE  = 
ORIGINATOR     = 

OBJECT_NAME    = HELIOS 1B
OBJECT_ID      = 1999-064A
CENTER_NAME    = EARTH
REF_FRAME      = TEME
TIME_SYSTEM    = UTC
MEAN_ELEMENT_THEORY = SGP/SGP4

EPOCH          = 2026-03-16T23:27:55.681920
MEAN_MOTION    = 14.87727950
ECCENTRICITY   = .0002292
INCLINATION    = 98.1689
RA_OF_ASC_NODE = 338.4350
ARG_OF_PERICENTER = 64.5628
MEAN_ANOMALY   = 295.5824

EPHEMERIS_TYPE = 0
CLASSIFICATION_TYPE = U
NORAD_CAT_ID   = 25977
ELEMENT_SET_NO = 999
REV_AT_EPOCH   = 68634
BSTAR          = .1757E-3
MEAN_MOTION_DOT = .1543E-4
MEAN_MOTION_DDOT = 0

CCSDS_OMM_VERS = 2.0
CREATION_DATE  = 
ORIGINATOR     = 

OBJECT_NAME    = TERRA
OBJECT_ID      = 1999-068A
CENTER_NAME    = EARTH
REF_FRAME      = TEME
TIME_SYSTEM    = UTC
MEAN_ELEMENT_THEORY = SGP/SGP4

EPOCH          = 2026-03-17T04:23:41.936928
MEAN_MOTION    = 14.61022843
ECCENTRICITY   = .000314
INCLINATION    = 97.9577
RA_OF_ASC_NODE = 129.3310
ARG_OF_PERICENTER = 135.1955
MEAN_ANOMALY   = 301.0539

EPHEMERIS_TYPE = 0
CLASSIFICATION_TYPE = U
NORAD_CAT_ID   = 25994
ELEMENT_SET_NO = 999
REV_AT_EPOCH   = 39617
BSTAR          = .92957E-4
MEAN_MOTION_DOT = .412E-5
MEAN_MOTION_DDOT = 0

CCSDS_OMM_VERS = 2.0
CREATION_DATE  = 
ORIGINATOR     = 

OBJECT_NAME    = SL-16 R/B
OBJECT_ID      = 2000-006B
CENTER_NAME    = EARTH
REF_FRAME      = TEME
TIME_SYSTEM    = UTC
MEAN_ELEMENT_THEORY = SGP/SGP4

EPOCH          = 2026-03-17T01:51:45.216288
MEAN_MOTION    = 14.15824169
ECCENTRICITY   = .0016361
INCLINATION    = 71.0002
RA_OF_ASC_NODE = 82.3015
ARG_OF_PERICENTER = 178.8585
MEAN_ANOMALY   = 181.2578

EPHEMERIS_TYPE = 0
CLASSIFICATION_TYPE = U
NORAD_CAT_ID   = 26070
ELEMENT_SET_NO = 999
REV_AT_EPOCH   = 34960
BSTAR          = -.69014E-4
MEAN_MOTION_DOT = -.184E-5
MEAN_MOTION_DDOT = 0

CCSDS_OMM_VERS = 2.0
CREATION_DATE  = 
ORIGINATOR     = 

OBJECT_NAME    = TITAN 4B R/B
OBJECT_ID      = 2000-047B
CENTER_NAME    = EARTH
REF_FRAME      = TEME
TIME_SYSTEM    = UTC
MEAN_ELEMENT_THEORY = SGP/SGP4

EPOCH          = 2026-03-17T02:48:49.813344
MEAN_MOTION    = 15.09638120
ECCENTRICITY   = .0038829
INCLINATION    = 67.9910
RA_OF_ASC_NODE = 19.6226
ARG_OF_PERICENTER = 26.5531
MEAN_ANOMALY   = 333.7595

EPHEMERIS_TYPE = 0
CLASSIFICATION_TYPE = U
NORAD_CAT_ID   = 26474
ELEMENT_SET_NO = 999
REV_AT_EPOCH   = 39403
BSTAR          = .22333E-3
MEAN_MOTION_DOT = .3528E-4
MEAN_MOTION_DDOT = 0

CCSDS_OMM_VERS = 2.0
CREATION_DATE  = 
ORIGINATOR     = 

OBJECT_NAME    = ENVISAT
OBJECT_ID      = 2002-009A
CENTER_NAME    = EARTH
REF_FRAME      = TEME
TIME_SYSTEM    = UTC
MEAN_ELEMENT_THEORY = SGP/SGP4

EPOCH          = 2026-03-16T19:59:33.925920
MEAN_MOTION    = 14.39039566
ECCENTRICITY   = .0001304
INCLINATION    = 98.3739
RA_OF_ASC_NODE = 29.2607
ARG_OF_PERICENTER = 82.6085
MEAN_ANOMALY   = 285.6010

EPHEMERIS_TYPE = 0
CLASSIFICATION_TYPE = U
NORAD_CAT_ID   = 27386
ELEMENT_SET_NO = 999
REV_AT_EPOCH   = 26020
BSTAR          = .46606E-4
MEAN_MOTION_DOT = .101E-5
MEAN_MOTION_DDOT = 0

CCSDS_OMM_VERS = 2.0
CREATION_DATE  = 
ORIGINATOR     = 

OBJECT_NAME    = IDEFIX & ARIANE 42P R/B
OBJECT_ID      = 2002-021B
CENTER_NAME    = EARTH
REF_FRAME      = TEME
TIME_SYSTEM    = UTC
MEAN_ELEMENT_THEORY = SGP/SGP4

EPOCH          = 2026-03-17T02:48:39.610368
MEAN_MOTION    = 14.31031330
ECCENTRICITY   = .0012015
INCLINATION    = 98.5877
RA_OF_ASC_NODE = 14.6349
ARG_OF_PERICENTER = 160.2911
MEAN_ANOMALY   = 199.8738

EPHEMERIS_TYPE = 0
CLASSIFICATION_TYPE = U
NORAD_CAT_ID   = 27422
ELEMENT_SET_NO = 999
REV_AT_EPOCH   = 24508
BSTAR          = .10877E-3
MEAN_MOTION_DOT = .243E-5
MEAN_MOTION_DDOT = 0

